[
    {
        "Altitude(m)": 607895.7814073161,
        "Argument of Periapsis(deg)": 0.0,
        "Eccentricity": 0.0,
        "Inclination(deg)": 60.0,
        "Latitude(deg)": 40.998242141884035,
        "Longitude(deg)": -94.91133245858185,
        "Mean Anomaly(deg)": 130.9091,
        "RAAN(deg)": 215.0,
        "Satellite Name": "Test1 954",
        "Satellite Number": 954,
        "Semi-Major Axis(m)": 6980739.136638005,
        "Time(s)": 0
    },
    {
        "Altitude(m)": 607795.0942592415,
        "Argument of Periapsis(deg)": 0.00010418945913296404,
        "Eccentricity": 0.0,
        "Inclination(deg)": 60.0,
        "Latitude(deg)": 40.530566174261786,
        "Longitude(deg)": -94.41473970092699,
        "Mean Anomaly(deg)": 131.52920614546187,
        "RAAN(deg)": 214.99957995086024,
        "Satellite Name": "Test1 954",
        "Satellite Number": 954,
        "Semi-Major Axis(m)": 6980739.136638005,
        "Time(s)": 10
    }
]